start=new Date('2022-02-04T00:00:00.000Z').valueOf();
sats=[{"REF_FRAME":"TEME","BSTAR":"-0.01443800000000","PERIOD":"93.145","GP_ID":"195262141","CLASSIFICATION_TYPE":"U","EPHEMERIS_TYPE":"0","OBJECT_NAME":"STARLINK-3313","SEMIMAJOR_AXIS":"6806.633","MEAN_ELEMENT_THEORY":"SGP4","TIME_SYSTEM":"UTC","ECCENTRICITY":"0.00014550","OBJECT_ID":"2021-125B","REV_AT_EPOCH":"368","MEAN_MOTION":"15.45981294","EPOCH":"2022-02-03T22:00:01.999584","TLE_LINE1":"1 50157U 21125B   22034.91668981 -.00657906  00000-0 -14438-1 0  9994","APOAPSIS":"429.489","MEAN_MOTION_DOT":"-0.00657906","COUNTRY_CODE":"US","ELEMENT_SET_NO":"999","TLE_LINE2":"2 50157  53.2174 132.9462 0001455  51.6274 229.0234 15.45981294  3686","CENTER_NAME":"EARTH","RCS_SIZE":"LARGE","INCLINATION":"53.2174","LAUNCH_DATE":"2021-12-18","DECAY_DATE":null,"PERIAPSIS":"427.508","RA_OF_ASC_NODE":"132.9462","MEAN_MOTION_DDOT":"0.0000000000000","OBJECT_TYPE":"PAYLOAD","ARG_OF_PERICENTER":"51.6274","NORAD_CAT_ID":"50157","FILE":"3291273","SITE":"AFWTR","MEAN_ANOMALY":"229.0234"},{"TLE_LINE2":"2 50158  53.2174 132.9433 0001529  44.0162 263.4832 15.46326723  3686","RCS_SIZE":"LARGE","CENTER_NAME":"EARTH","INCLINATION":"53.2174","DECAY_DATE":null,"LAUNCH_DATE":"2021-12-18","PERIAPSIS":"426.444","RA_OF_ASC_NODE":"132.9433","OBJECT_TYPE":"PAYLOAD","NORAD_CAT_ID":"50158","MEAN_MOTION_DDOT":"0.0000000000000","ARG_OF_PERICENTER":"44.0162","SITE":"AFWTR","FILE":"3291273","MEAN_ANOMALY":"263.4832","BSTAR":"-0.01426700000000","PERIOD":"93.124","REF_FRAME":"TEME","CLASSIFICATION_TYPE":"U","GP_ID":"195262394","EPHEMERIS_TYPE":"0","OBJECT_NAME":"STARLINK-3309","MEAN_ELEMENT_THEORY":"SGP4","TIME_SYSTEM":"UTC","SEMIMAJOR_AXIS":"6805.620","REV_AT_EPOCH":"368","ECCENTRICITY":"0.00015290","OBJECT_ID":"2021-125C","APOAPSIS":"428.525","EPOCH":"2022-02-03T22:00:01.999584","MEAN_MOTION":"15.46326723","TLE_LINE1":"1 50158U 21125C   22034.91668981 -.00657949  00000-0 -14267-1 0  9992","COUNTRY_CODE":"US","MEAN_MOTION_DOT":"-0.00657949","ELEMENT_SET_NO":"999"},{"RA_OF_ASC_NODE":"132.9423","PERIAPSIS":"426.143","NORAD_CAT_ID":"50159","OBJECT_TYPE":"PAYLOAD","MEAN_MOTION_DDOT":"0.0000000000000","ARG_OF_PERICENTER":"45.4361","FILE":"3291273","SITE":"AFWTR","MEAN_ANOMALY":"270.9448","TLE_LINE2":"2 50159  53.2175 132.9423 0001476  45.4361 270.9448 15.46441731  3687","RCS_SIZE":"LARGE","CENTER_NAME":"EARTH","INCLINATION":"53.2175","LAUNCH_DATE":"2021-12-18","DECAY_DATE":null,"SEMIMAJOR_AXIS":"6805.282","MEAN_ELEMENT_THEORY":"SGP4","TIME_SYSTEM":"UTC","ECCENTRICITY":"0.00014760","OBJECT_ID":"2021-125D","REV_AT_EPOCH":"368","TLE_LINE1":"1 50159U 21125D   22034.91668981 -.00657635  00000-0 -14203-1 0  9995","MEAN_MOTION":"15.46441731","EPOCH":"2022-02-03T22:00:01.999584","APOAPSIS":"428.152","ELEMENT_SET_NO":"999","COUNTRY_CODE":"US","MEAN_MOTION_DOT":"-0.00657635","REF_FRAME":"TEME","PERIOD":"93.117","BSTAR":"-0.01420300000000","GP_ID":"195261642","CLASSIFICATION_TYPE":"U","EPHEMERIS_TYPE":"0","OBJECT_NAME":"STARLINK-3297"},{"LAUNCH_DATE":"2021-12-18","DECAY_DATE":null,"INCLINATION":"53.2174","CENTER_NAME":"EARTH","RCS_SIZE":"LARGE","TLE_LINE2":"2 50160  53.2174 132.9443 0001434  50.8512 247.7328 15.46211545 10261","MEAN_ANOMALY":"247.7328","FILE":"3291158","SITE":"AFWTR","MEAN_MOTION_DDOT":"0.0000000000000","OBJECT_TYPE":"PAYLOAD","NORAD_CAT_ID":"50160","ARG_OF_PERICENTER":"50.8512","PERIAPSIS":"426.847","RA_OF_ASC_NODE":"132.9443","OBJECT_NAME":"STARLINK-3288","EPHEMERIS_TYPE":"0","CLASSIFICATION_TYPE":"U","GP_ID":"195210848","REF_FRAME":"TEME","BSTAR":"-0.01432300000000","PERIOD":"93.131","COUNTRY_CODE":"US","ELEMENT_SET_NO":"999","MEAN_MOTION_DOT":"-0.00657889","EPOCH":"2022-02-03T22:00:01.999584","MEAN_MOTION":"15.46211545","TLE_LINE1":"1 50160U 21125E   22034.91668981 -.00657889  00000-0 -14323-1 0  9991","APOAPSIS":"428.798","ECCENTRICITY":"0.00014340","OBJECT_ID":"2021-125E","REV_AT_EPOCH":"1026","SEMIMAJOR_AXIS":"6805.958","MEAN_ELEMENT_THEORY":"SGP4","TIME_SYSTEM":"UTC"},{"DECAY_DATE":null,"LAUNCH_DATE":"2021-12-18","INCLINATION":"53.2174","CENTER_NAME":"EARTH","RCS_SIZE":"LARGE","TLE_LINE2":"2 50161  53.2174 132.9453 0001413  52.7301 236.9044 15.46096344  3688","MEAN_ANOMALY":"236.9044","SITE":"AFWTR","FILE":"3291273","MEAN_MOTION_DDOT":"0.0000000000000","OBJECT_TYPE":"PAYLOAD","NORAD_CAT_ID":"50161","ARG_OF_PERICENTER":"52.7301","RA_OF_ASC_NODE":"132.9453","PERIAPSIS":"427.199","OBJECT_NAME":"STARLINK-3304","EPHEMERIS_TYPE":"0","CLASSIFICATION_TYPE":"U","GP_ID":"195262641","PERIOD":"93.138","BSTAR":"-0.01437600000000","REF_FRAME":"TEME","MEAN_MOTION_DOT":"-0.00657705","COUNTRY_CODE":"US","ELEMENT_SET_NO":"999","APOAPSIS":"429.122","TLE_LINE1":"1 50161U 21125F   22034.91668981 -.00657705  00000-0 -14376-1 0  9997","EPOCH":"2022-02-03T22:00:01.999584","MEAN_MOTION":"15.46096344","REV_AT_EPOCH":"368","ECCENTRICITY":"0.00014130","OBJECT_ID":"2021-125F","MEAN_ELEMENT_THEORY":"SGP4","TIME_SYSTEM":"UTC","SEMIMAJOR_AXIS":"6806.296"},{"APOAPSIS":"337.110","TLE_LINE1":"1 50162U 21125G   22034.91668981  .00042979  00000-0  24371-3 0  9995","MEAN_MOTION":"15.78629328","EPOCH":"2022-02-03T22:00:01.999584","COUNTRY_CODE":"US","ELEMENT_SET_NO":"999","MEAN_MOTION_DOT":"0.00042979","TIME_SYSTEM":"UTC","MEAN_ELEMENT_THEORY":"SGP4","SEMIMAJOR_AXIS":"6712.460","REV_AT_EPOCH":"1029","ECCENTRICITY":"0.00041490","OBJECT_ID":"2021-125G","EPHEMERIS_TYPE":"0","OBJECT_NAME":"STARLINK-3303","PERIOD":"91.218","BSTAR":"0.00024371000000","REF_FRAME":"TEME","GP_ID":"195212646","CLASSIFICATION_TYPE":"U","SITE":"AFWTR","FILE":"3291229","MEAN_ANOMALY":"117.5175","RA_OF_ASC_NODE":"130.4149","PERIAPSIS":"331.540","MEAN_MOTION_DDOT":"0.0000000000000","OBJECT_TYPE":"PAYLOAD","ARG_OF_PERICENTER":"12.7372","NORAD_CAT_ID":"50162","INCLINATION":"53.2182","DECAY_DATE":null,"LAUNCH_DATE":"2021-12-18","TLE_LINE2":"2 50162  53.2182 130.4149 0004149  12.7372 117.5175 15.78629328 10299","CENTER_NAME":"EARTH","RCS_SIZE":"LARGE"},{"TLE_LINE2":"2 50163  53.2173 131.0821 0001632  35.9546 113.0412 15.69091510  3695","CENTER_NAME":"EARTH","RCS_SIZE":"LARGE","INCLINATION":"53.2173","DECAY_DATE":null,"LAUNCH_DATE":"2021-12-18","PERIAPSIS":"360.399","RA_OF_ASC_NODE":"131.0821","OBJECT_TYPE":"PAYLOAD","ARG_OF_PERICENTER":"35.9546","MEAN_MOTION_DDOT":"0.0000000000000","NORAD_CAT_ID":"50163","SITE":"AFWTR","FILE":"3291273","MEAN_ANOMALY":"113.0412","BSTAR":"-0.00268430000000","PERIOD":"91.773","REF_FRAME":"TEME","CLASSIFICATION_TYPE":"U","GP_ID":"195261143","EPHEMERIS_TYPE":"0","OBJECT_NAME":"STARLINK-3306","TIME_SYSTEM":"UTC","MEAN_ELEMENT_THEORY":"SGP4","SEMIMAJOR_AXIS":"6739.634","REV_AT_EPOCH":"369","ECCENTRICITY":"0.00016320","OBJECT_ID":"2021-125H","APOAPSIS":"362.599","EPOCH":"2022-02-03T22:00:01.999584","MEAN_MOTION":"15.69091510","TLE_LINE1":"1 50163U 21125H   22034.91668981 -.00306152  00000-0 -26843-2 0  9999","COUNTRY_CODE":"US","MEAN_MOTION_DOT":"-0.00306152","ELEMENT_SET_NO":"999"},{"TLE_LINE1":"1 50164U 21125J   22034.91668981  .00020425  00000-0  14945-3 0  9995","EPOCH":"2022-02-03T22:00:01.999584","MEAN_MOTION":"15.73221381","APOAPSIS":"351.287","ELEMENT_SET_NO":"999","COUNTRY_CODE":"US","MEAN_MOTION_DOT":"0.00020425","SEMIMAJOR_AXIS":"6727.834","MEAN_ELEMENT_THEORY":"SGP4","TIME_SYSTEM":"UTC","ECCENTRICITY":"0.00023600","OBJECT_ID":"2021-125J","REV_AT_EPOCH":"1029","EPHEMERIS_TYPE":"0","OBJECT_NAME":"STARLINK-3307","REF_FRAME":"TEME","PERIOD":"91.532","BSTAR":"0.00014945000000","CLASSIFICATION_TYPE":"U","GP_ID":"195212630","FILE":"3291224","SITE":"AFWTR","MEAN_ANOMALY":"148.2065","RA_OF_ASC_NODE":"131.0882","PERIAPSIS":"348.111","OBJECT_TYPE":"PAYLOAD","MEAN_MOTION_DDOT":"0.0000000000000","NORAD_CAT_ID":"50164","ARG_OF_PERICENTER":"12.9412","INCLINATION":"53.2170","DECAY_DATE":null,"LAUNCH_DATE":"2021-12-18","TLE_LINE2":"2 50164  53.2170 131.0882 0002360  12.9412 148.2065 15.73221381 10290","RCS_SIZE":"LARGE","CENTER_NAME":"EARTH"},{"SITE":"AFWTR","FILE":"3291273","MEAN_ANOMALY":"279.6717","PERIAPSIS":"425.822","RA_OF_ASC_NODE":"132.9412","MEAN_MOTION_DDOT":"0.0000000000000","OBJECT_TYPE":"PAYLOAD","NORAD_CAT_ID":"50165","ARG_OF_PERICENTER":"45.5565","INCLINATION":"53.2175","DECAY_DATE":null,"LAUNCH_DATE":"2021-12-18","TLE_LINE2":"2 50165  53.2175 132.9412 0001451  45.5565 279.6717 15.46556842  3687","CENTER_NAME":"EARTH","RCS_SIZE":"LARGE","APOAPSIS":"427.797","MEAN_MOTION":"15.46556842","EPOCH":"2022-02-03T22:00:01.999584","TLE_LINE1":"1 50165U 21125K   22034.91668981 -.00657574  00000-0 -14145-1 0  9999","MEAN_MOTION_DOT":"-0.00657574","COUNTRY_CODE":"US","ELEMENT_SET_NO":"999","TIME_SYSTEM":"UTC","MEAN_ELEMENT_THEORY":"SGP4","SEMIMAJOR_AXIS":"6804.944","REV_AT_EPOCH":"368","OBJECT_ID":"2021-125K","ECCENTRICITY":"0.00014510","EPHEMERIS_TYPE":"0","OBJECT_NAME":"STARLINK-3298","BSTAR":"-0.01414500000000","PERIOD":"93.110","REF_FRAME":"TEME","GP_ID":"195262142","CLASSIFICATION_TYPE":"U"},{"MEAN_ANOMALY":"137.6479","SITE":"AFWTR","FILE":"3291263","OBJECT_TYPE":"PAYLOAD","NORAD_CAT_ID":"50166","MEAN_MOTION_DDOT":"0.0000000000000","ARG_OF_PERICENTER":"26.3744","PERIAPSIS":"348.153","RA_OF_ASC_NODE":"131.0807","LAUNCH_DATE":"2021-12-18","DECAY_DATE":null,"INCLINATION":"53.2165","RCS_SIZE":"LARGE","CENTER_NAME":"EARTH","TLE_LINE2":"2 50166  53.2165 131.0807 0002343  26.3744 137.6479 15.73210953  7684","MEAN_MOTION_DOT":"0.00018980","COUNTRY_CODE":"US","ELEMENT_SET_NO":"999","APOAPSIS":"351.305","EPOCH":"2022-02-03T22:00:01.999584","MEAN_MOTION":"15.73210953","TLE_LINE1":"1 50166U 21125L   22034.91668981  .00018980  00000-0  13928-3 0  9990","REV_AT_EPOCH":"768","OBJECT_ID":"2021-125L","ECCENTRICITY":"0.00023430","MEAN_ELEMENT_THEORY":"SGP4","TIME_SYSTEM":"UTC","SEMIMAJOR_AXIS":"6727.864","OBJECT_NAME":"STARLINK-3305","EPHEMERIS_TYPE":"0","GP_ID":"195213115","CLASSIFICATION_TYPE":"U","BSTAR":"0.00013928000000","PERIOD":"91.533","REF_FRAME":"TEME"}];
